CTC2_L_00369016-03
1 87727U 24202PP  26037.47795139  .00000000  00000+0  00000-0 0  9993
2 87727  65.0000 180.0000 0000000   0.0000   0.0000 13.16009617    18
CTC2_L_00369016-04
1 87728U 26214OE  26037.47795139  .00000000  00000+0  00000-0 0  9999
2 87728  65.0000 180.0000 0000000   0.0000  90.0000 13.16009617    18
CTC2_L_00369017-01
1 87729U 25913PT  26037.47795139  .00000000  00000+0  00000-0 0  9995
2 87729  65.0000 192.0000 0000000   0.0000 192.0000 13.16009617    15
CTC2_L_00369017-02
1 87730U 22880AW  26037.47795139  .00000000  00000+0  00000-0 0  9997
2 87730  65.0000 192.0000 0000000   0.0000 282.0000 13.16009617    17
CTC2_L_00369017-03
1 87731U 23112RD  26037.47795139  .00000000  00000+0  00000-0 0  9997
2 87731  65.0000 192.0000 0000000   0.0000  12.0000 13.16009617    19
CTC2_L_00369017-04
1 87732U 26499ZP  26037.47795139  .00000000  00000+0  00000-0 0  9999
2 87732  65.0000 192.0000 0000000   0.0000 102.0000 13.16009617    10
CTC2_L_00369018-01
1 87733U 26598LB  26037.47795139  .00000000  00000+0  00000-0 0  9990
2 87733  65.0000 204.0000 0000000   0.0000 204.0000 13.16009617    18
CTC2_L_00369018-02
1 87734U 26963TA  26037.47795139  .00000000  00000+0  00000-0 0  9997
2 87734  65.0000 204.0000 0000000   0.0000 294.0000 13.16009617    18
CTC2_L_00369018-03
1 87735U 25647GX  26037.47795139  .00000000  00000+0  00000-0 0  9996
2 87735  65.0000 204.0000 0000000   0.0000  24.0000 13.16009617    10
CTC2_L_00369018-04
1 87736U 26774WX  26037.47795139  .00000000  00000+0  00000-0 0  9999
2 87736  65.0000 204.0000 0000000   0.0000 114.0000 13.16009617    11
CTC2_L_00369019-01
1 87737U 24168MS  26037.47795139  .00000000  00000+0  00000-0 0  9995
2 87737  65.0000 216.0000 0000000   0.0000 216.0000 13.16009617    18
CTC2_L_00369019-02
1 87738U 24527WL  26037.47795139  .00000000  00000+0  00000-0 0  9995
2 87738  65.0000 216.0000 0000000   0.0000 306.0000 13.16009617    19
CTC2_L_00369019-03
1 87739U 26785BT  26037.47795139  .00000000  00000+0  00000-0 0  9994
2 87739  65.0000 216.0000 0000000   0.0000  36.0000 13.16009617    10
CTC2_L_00369019-04
1 87740U 26305AU  26037.47795139  .00000000  00000+0  00000-0 0  9994
2 87740  65.0000 216.0000 0000000   0.0000 126.0000 13.16009617    12
CTC2_L_00369020-01
1 87741U 26409FE  26037.47795139  .00000000  00000+0  00000-0 0  9990
2 87741  65.0000 228.0000 0000000   0.0000 228.0000 13.16009617    19
CTC2_L_00369020-02
1 87742U 26954AA  26037.47795139  .00000000  00000+0  00000-0 0  9996
2 87742  65.0000 228.0000 0000000   0.0000 318.0000 13.16009617    10
CTC2_L_00369020-03
1 87743U 25203GQ  26037.47795139  .00000000  00000+0  00000-0 0  9993
2 87743  65.0000 228.0000 0000000   0.0000  48.0000 13.16009617    11
CTC2_L_00369020-04
1 87744U 26590LW  26037.47795139  .00000000  00000+0  00000-0 0  9994
2 87744  65.0000 228.0000 0000000   0.0000 138.0000 13.16009617    12
CTC2_L_00369021-01
1 87745U 26670DL  26037.47795139  .00000000  00000+0  00000-0 0  9994
2 87745  65.0000 240.0000 0000000   0.0000 240.0000 13.16009617    11
CTC2_L_00369021-02
1 87746U 25615ME  26037.47795139  .00000000  00000+0  00000-0 0  9993
2 87746  65.0000 240.0000 0000000   0.0000 330.0000 13.16009617    12
CTC2_L_00369021-03
1 87747U 23357VH  26037.47795139  .00000000  00000+0  00000-0 0  9995
2 87747  65.0000 240.0000 0000000   0.0000  60.0000 13.16009617    13
CTC2_L_00369021-04
1 87748U 24275LI  26037.47795139  .00000000  00000+0  00000-0 0  9996
2 87748  65.0000 240.0000 0000000   0.0000 150.0000 13.16009617    14
CTC2_L_00369022-01
1 87749U 22288AT  26037.47795139  .00000000  00000+0  00000-0 0  9999
2 87749  65.0000 252.0000 0000000   0.0000 252.0000 13.16009617    11
CTC2_L_00369022-02
1 87750U 22996EV  26037.47795139  .00000000  00000+0  00000-0 0  9997
2 87750  65.0000 252.0000 0000000   0.0000 342.0000 13.16009617    13
CTC2_L_00369022-03
1 87751U 25538WM  26037.47795139  .00000000  00000+0  00000-0 0  9993
2 87751  65.0000 252.0000 0000000   0.0000  72.0000 13.16009617    14
CTC2_L_00369022-04
1 87752U 24828IF  26037.47795139  .00000000  00000+0  00000-0 0  9995
2 87752  65.0000 252.0000 0000000   0.0000 162.0000 13.16009617    15
CTC2_L_00369023-01
1 87753U 26241KO  26037.47795139  .00000000  00000+0  00000-0 0  9997
2 87753  65.0000 264.0000 0000000   0.0000 264.0000 13.16009617    12
CTC2_L_00369023-02
1 87754U 23638IQ  26037.47795139  .00000000  00000+0  00000-0 0  9995
2 87754  65.0000 264.0000 0000000   0.0000 354.0000 13.16009617    13
CTC2_L_00369023-03
1 87755U 23527QZ  26037.47795139  .00000000  00000+0  00000-0 0  9993
2 87755  65.0000 264.0000 0000000   0.0000  84.0000 13.16009617    14
CTC2_L_00369023-04
1 87756U 25299UZ  26037.47795139  .00000000  00000+0  00000-0 0  9992
2 87756  65.0000 264.0000 0000000   0.0000 174.0000 13.16009617    15
CTC2_L_00369024-01
1 87757U 25951SL  26037.47795139  .00000000  00000+0  00000-0 0  9998
2 87757  65.0000 276.0000 0000000   0.0000 276.0000 13.16009617    12
CTC2_L_00369024-02
1 87758U 26532KQ  26037.47795139  .00000000  00000+0  00000-0 0  9995
2 87758  65.0000 276.0000 0000000   0.0000   6.0000 13.16009617    14
CTC2_L_00369024-03
1 87759U 22187EO  26037.47795139  .00000000  00000+0  00000-0 0  9998
2 87759  65.0000 276.0000 0000000   0.0000  96.0000 13.16009617    14
CTC2_L_00369024-04
1 87760U 23064DQ  26037.47795139  .00000000  00000+0  00000-0 0  9995
2 87760  65.0000 276.0000 0000000   0.0000 186.0000 13.16009617    16
CTC2_L_00369025-01
1 87761U 25191YP  26037.47795139  .00000000  00000+0  00000-0 0  9999
2 87761  65.0000 288.0000 0000000   0.0000 288.0000 13.16009617    13
CTC2_L_00369025-02
1 87762U 26237LT  26037.47795139  .00000000  00000+0  00000-0 0  9992
2 87762  65.0000 288.0000 0000000   0.0000  18.0000 13.16009617    15
CTC2_L_00369025-03
1 87763U 26096VI  26037.47795139  .00000000  00000+0  00000-0 0  9996
2 87763  65.0000 288.0000 0000000   0.0000 108.0000 13.16009617    16
CTC2_L_00369025-04
1 87764U 22627QQ  26037.47795139  .00000000  00000+0  00000-0 0  9993
2 87764  65.0000 288.0000 0000000   0.0000 198.0000 13.16009617    16
CTC2_L_00369026-01
1 87765U 25253ZA  26037.47795139  .00000000  00000+0  00000-0 0  9992
2 87765  65.0000 300.0000 0000000   0.0000 300.0000 13.16009617    17
CTC2_L_00369026-02
1 87766U 22078XX  26037.47795139  .00000000  00000+0  00000-0 0  9995
2 87766  65.0000 300.0000 0000000   0.0000  30.0000 13.16009617    18
CTC2_L_00369026-03
1 87767U 26896JM  26037.47795139  .00000000  00000+0  00000-0 0  9998
2 87767  65.0000 300.0000 0000000   0.0000 120.0000 13.16009617    19
CTC2_L_00369026-04
1 87768U 23982EC  26037.47795139  .00000000  00000+0  00000-0 0  9992
2 87768  65.0000 300.0000 0000000   0.0000 210.0000 13.16009617    10
CTC2_L_00369027-01
1 87769U 23079RU  26037.47795139  .00000000  00000+0  00000-0 0  9990
2 87769  65.0000 312.0000 0000000   0.0000 312.0000 13.16009617    17
CTC2_L_00369027-02
1 87770U 26413WL  26037.47795139  .00000000  00000+0  00000-0 0  9997
2 87770  65.0000 312.0000 0000000   0.0000  42.0000 13.16009617    19
CTC2_L_00369027-03
1 87771U 22483FL  26037.47795139  .00000000  00000+0  00000-0 0  9991
2 87771  65.0000 312.0000 0000000   0.0000 132.0000 13.16009617    10
CTC2_L_00369027-04
1 87772U 26621IR  26037.47795139  .00000000  00000+0  00000-0 0  9990
2 87772  65.0000 312.0000 0000000   0.0000 222.0000 13.16009617    11
CTC2_L_00369028-01
1 87773U 25528NF  26037.47795139  .00000000  00000+0  00000-0 0  9996
2 87773  65.0000 324.0000 0000000   0.0000 324.0000 13.16009617    18
CTC2_L_00369028-02
1 87774U 26698DJ  26037.47795139  .00000000  00000+0  00000-0 0  9996
2 87774  65.0000 324.0000 0000000   0.0000  54.0000 13.16009617    19
CTC2_L_00369028-03
1 87775U 25977UG  26037.47795139  .00000000  00000+0  00000-0 0  9996
2 87775  65.0000 324.0000 0000000   0.0000 144.0000 13.16009617    10
CTC2_L_00369028-04
1 87776U 26156TY  26037.47795139  .00000000  00000+0  00000-0 0  9997
2 87776  65.0000 324.0000 0000000   0.0000 234.0000 13.16009617    11
CTC2_L_00369029-01
1 87777U 25848SA  26037.47795139  .00000000  00000+0  00000-0 0  9995
2 87777  65.0000 336.0000 0000000   0.0000 336.0000 13.16009617    18
CTC2_L_00369029-02
1 87778U 26717AF  26037.47795139  .00000000  00000+0  00000-0 0  9992
2 87778  65.0000 336.0000 0000000   0.0000  66.0000 13.16009617    19
CTC2_L_00369029-03
1 87779U 26066EM  26037.47795139  .00000000  00000+0  00000-0 0  9990
2 87779  65.0000 336.0000 0000000   0.0000 156.0000 13.16009617    10
CTC2_L_00369029-04
1 87780U 22063Z   26037.47795139  .00000000  00000+0  00000-0 0  9995
2 87780  65.0000 336.0000 0000000   0.0000 246.0000 13.16009617    12
CTC2_L_00369030-01
1 87781U 23805CF  26037.47795139  .00000000  00000+0  00000-0 0  9991
2 87781  65.0000 348.0000 0000000   0.0000 348.0000 13.16009617    19
CTC2_L_00369030-02
1 87782U 22928WG  26037.47795139  .00000000  00000+0  00000-0 0  9997
2 87782  65.0000 348.0000 0000000   0.0000  78.0000 13.16009617    10
CTC2_L_00369030-03
1 87783U 22163UE  26037.47795139  .00000000  00000+0  00000-0 0  9999
2 87783  65.0000 348.0000 0000000   0.0000 168.0000 13.16009617    11
CTC2_L_00369030-04
1 87784U 23621DR  26037.47795139  .00000000  00000+0  00000-0 0  9990
2 87784  65.0000 348.0000 0000000   0.0000 258.0000 13.16009617    12
